XRISM                   
1 57800U 23137A   26066.06514176  .00006397  00000+0  36310-3 0  9996
2 57800  31.0025 300.6391 0008035  11.7936 348.2890 15.11463036137395
ACS3                    
1 59588U 24077B   26066.26576917  .00023728  00000+0  19133-1 0  9997
2 59588  97.2093   7.9227 0057864  82.9629 277.8111 13.89472654 93862
SZ-21 MODULE            
1 66515U 25246C   26065.50767940  .00041950  00000+0  36494-3 0  9996
2 66515  41.4735 222.9439 0001433 292.6372  67.4317 15.68252686 17579
